start=new Date('2022-07-05T00:00:00.000Z').valueOf();
sats=[{"ECCENTRICITY":"0.00019000","REF_FRAME":"TEME","SITE":"AFETR","MEAN_MOTION":"15.69840132","TLE_LINE1":"1 52689U 22053AK  22185.91667824 -.01053697  00000-0 -96227-2 0  9994","OBJECT_ID":"2022-053AK","NORAD_CAT_ID":"52689","DECAY_DATE":null,"INCLINATION":"53.2175","RCS_SIZE":"LARGE","APOAPSIS":"360.637","ARG_OF_PERICENTER":"23.6768","RA_OF_ASC_NODE":"62.8577","PERIAPSIS":"358.076","TIME_SYSTEM":"UTC","EPOCH":"2022-07-04T22:00:00.999936","SEMIMAJOR_AXIS":"6737.491","OBJECT_NAME":"STARLINK-4078","REV_AT_EPOCH":"130","MEAN_ANOMALY":"326.1826","COUNTRY_CODE":"US","MEAN_MOTION_DOT":"-0.01053697","FILE":"3507746","LAUNCH_DATE":"2022-05-18","ELEMENT_SET_NO":"999","TLE_LINE2":"2 52689  53.2175  62.8577 0001900  23.6768 326.1826 15.69840132  1303","PERIOD":"91.729","CLASSIFICATION_TYPE":"U","BSTAR":"-0.00962270000000","OBJECT_TYPE":"PAYLOAD","MEAN_ELEMENT_THEORY":"SGP4","CENTER_NAME":"EARTH","MEAN_MOTION_DDOT":"0.0000000000000","EPHEMERIS_TYPE":"0","GP_ID":"207420311"},{"PERIAPSIS":"358.274","RA_OF_ASC_NODE":"62.8516","TIME_SYSTEM":"UTC","INCLINATION":"53.2175","ARG_OF_PERICENTER":"27.7867","RCS_SIZE":"LARGE","APOAPSIS":"360.637","DECAY_DATE":null,"NORAD_CAT_ID":"52690","MEAN_MOTION":"15.69805444","TLE_LINE1":"1 52690U 22053AL  22185.91667824 -.01053560  00000-0 -96359-2 0  9991","OBJECT_ID":"2022-053AL","REF_FRAME":"TEME","SITE":"AFETR","ECCENTRICITY":"0.00017540","EPHEMERIS_TYPE":"0","GP_ID":"207419771","MEAN_MOTION_DDOT":"0.0000000000000","CENTER_NAME":"EARTH","OBJECT_TYPE":"PAYLOAD","MEAN_ELEMENT_THEORY":"SGP4","LAUNCH_DATE":"2022-05-18","ELEMENT_SET_NO":"999","TLE_LINE2":"2 52690  53.2175  62.8516 0001754  27.7867 318.9143 15.69805444  1308","BSTAR":"-0.00963590000000","PERIOD":"91.731","CLASSIFICATION_TYPE":"U","COUNTRY_CODE":"US","MEAN_MOTION_DOT":"-0.01053560","FILE":"3507746","SEMIMAJOR_AXIS":"6737.591","OBJECT_NAME":"STARLINK-4035","REV_AT_EPOCH":"130","MEAN_ANOMALY":"318.9143","EPOCH":"2022-07-04T22:00:00.999936"},{"MEAN_MOTION":"15.69846946","TLE_LINE1":"1 52691U 22053AM  22185.91667824 -.01053631  00000-0 -96188-2 0  9991","OBJECT_ID":"2022-053AM","REF_FRAME":"TEME","SITE":"AFETR","ECCENTRICITY":"0.00020170","PERIAPSIS":"357.978","RA_OF_ASC_NODE":"62.8589","TIME_SYSTEM":"UTC","INCLINATION":"53.2175","ARG_OF_PERICENTER":"21.8471","RCS_SIZE":"LARGE","APOAPSIS":"360.696","DECAY_DATE":null,"NORAD_CAT_ID":"52691","LAUNCH_DATE":"2022-05-18","ELEMENT_SET_NO":"999","TLE_LINE2":"2 52691  53.2175  62.8589 0002017  21.8471 328.6439 15.69846946  1306","CLASSIFICATION_TYPE":"U","PERIOD":"91.729","BSTAR":"-0.00961880000000","COUNTRY_CODE":"US","FILE":"3507746","MEAN_MOTION_DOT":"-0.01053631","SEMIMAJOR_AXIS":"6737.472","OBJECT_NAME":"STARLINK-3945","REV_AT_EPOCH":"130","MEAN_ANOMALY":"328.6439","EPOCH":"2022-07-04T22:00:00.999936","EPHEMERIS_TYPE":"0","GP_ID":"207420223","MEAN_MOTION_DDOT":"0.0000000000000","CENTER_NAME":"EARTH","OBJECT_TYPE":"PAYLOAD","MEAN_ELEMENT_THEORY":"SGP4"},{"SEMIMAJOR_AXIS":"6737.531","OBJECT_NAME":"STARLINK-3993","REV_AT_EPOCH":"130","MEAN_ANOMALY":"322.1194","EPOCH":"2022-07-04T22:00:00.999936","LAUNCH_DATE":"2022-05-18","ELEMENT_SET_NO":"999","BSTAR":"-0.00962850000000","TLE_LINE2":"2 52692  53.2175  62.8554 0001787  26.4769 322.1194 15.69826290  1300","PERIOD":"91.730","CLASSIFICATION_TYPE":"U","COUNTRY_CODE":"US","MEAN_MOTION_DOT":"-0.01053673","FILE":"3507746","CENTER_NAME":"EARTH","OBJECT_TYPE":"PAYLOAD","MEAN_ELEMENT_THEORY":"SGP4","EPHEMERIS_TYPE":"0","GP_ID":"207420461","MEAN_MOTION_DDOT":"0.0000000000000","ECCENTRICITY":"0.00017870","MEAN_MOTION":"15.69826290","OBJECT_ID":"2022-053AN","TLE_LINE1":"1 52692U 22053AN  22185.91667824 -.01053673  00000-0 -96285-2 0  9996","REF_FRAME":"TEME","SITE":"AFETR","DECAY_DATE":null,"NORAD_CAT_ID":"52692","PERIAPSIS":"358.192","RA_OF_ASC_NODE":"62.8554","TIME_SYSTEM":"UTC","INCLINATION":"53.2175","APOAPSIS":"360.600","RCS_SIZE":"LARGE","ARG_OF_PERICENTER":"26.4769"},{"EPOCH":"2022-07-04T22:00:00.999936","OBJECT_NAME":"STARLINK-3946","SEMIMAJOR_AXIS":"6737.432","MEAN_ANOMALY":"327.7595","REV_AT_EPOCH":"130","FILE":"3507746","MEAN_MOTION_DOT":"-0.01053709","COUNTRY_CODE":"US","LAUNCH_DATE":"2022-05-18","TLE_LINE2":"2 52693  53.2176  62.8614 0001889  23.9942 327.7595 15.69860894  1301","CLASSIFICATION_TYPE":"U","PERIOD":"91.728","BSTAR":"-0.00961450000000","ELEMENT_SET_NO":"999","OBJECT_TYPE":"PAYLOAD","MEAN_ELEMENT_THEORY":"SGP4","CENTER_NAME":"EARTH","MEAN_MOTION_DDOT":"0.0000000000000","EPHEMERIS_TYPE":"0","GP_ID":"207419960","ECCENTRICITY":"0.00018890","REF_FRAME":"TEME","SITE":"AFETR","MEAN_MOTION":"15.69860894","OBJECT_ID":"2022-053AP","TLE_LINE1":"1 52693U 22053AP  22185.91667824 -.01053709  00000-0 -96145-2 0  9992","NORAD_CAT_ID":"52693","DECAY_DATE":null,"INCLINATION":"53.2176","ARG_OF_PERICENTER":"23.9942","RCS_SIZE":"LARGE","APOAPSIS":"360.570","PERIAPSIS":"358.024","RA_OF_ASC_NODE":"62.8614","TIME_SYSTEM":"UTC"},{"MEAN_MOTION_DDOT":"0.0000000000000","EPHEMERIS_TYPE":"0","GP_ID":"207420123","OBJECT_TYPE":"PAYLOAD","MEAN_ELEMENT_THEORY":"SGP4","CENTER_NAME":"EARTH","MEAN_MOTION_DOT":"-0.01053546","FILE":"3507746","COUNTRY_CODE":"US","LAUNCH_DATE":"2022-05-18","PERIOD":"91.729","TLE_LINE2":"2 52694  53.2175  62.8567 0001674  30.2024 319.0256 15.69833128  1300","BSTAR":"-0.00962490000000","CLASSIFICATION_TYPE":"U","ELEMENT_SET_NO":"999","EPOCH":"2022-07-04T22:00:00.999936","OBJECT_NAME":"STARLINK-4072","SEMIMAJOR_AXIS":"6737.511","MEAN_ANOMALY":"319.0256","REV_AT_EPOCH":"130","INCLINATION":"53.2175","RCS_SIZE":"LARGE","APOAPSIS":"360.504","ARG_OF_PERICENTER":"30.2024","RA_OF_ASC_NODE":"62.8567","PERIAPSIS":"358.249","TIME_SYSTEM":"UTC","NORAD_CAT_ID":"52694","DECAY_DATE":null,"REF_FRAME":"TEME","SITE":"AFETR","MEAN_MOTION":"15.69833128","OBJECT_ID":"2022-053AQ","TLE_LINE1":"1 52694U 22053AQ  22185.91667824 -.01053546  00000-0 -96249-2 0  9997","ECCENTRICITY":"0.00016740"},{"DECAY_DATE":null,"NORAD_CAT_ID":"52695","RA_OF_ASC_NODE":"64.0692","PERIAPSIS":"414.310","TIME_SYSTEM":"UTC","INCLINATION":"53.2185","APOAPSIS":"416.883","RCS_SIZE":"LARGE","ARG_OF_PERICENTER":"28.3950","ECCENTRICITY":"0.00018940","MEAN_MOTION":"15.50387234","OBJECT_ID":"2022-053AR","TLE_LINE1":"1 52695U 22053AR  22185.91667824 -.01618254  00000-0 -31161-1 0  9992","REF_FRAME":"TEME","SITE":"AFETR","CENTER_NAME":"EARTH","OBJECT_TYPE":"PAYLOAD","MEAN_ELEMENT_THEORY":"SGP4","EPHEMERIS_TYPE":"0","GP_ID":"207419871","MEAN_MOTION_DDOT":"0.0000000000000","OBJECT_NAME":"STARLINK-4041","SEMIMAJOR_AXIS":"6793.732","MEAN_ANOMALY":"100.2846","REV_AT_EPOCH":"777","EPOCH":"2022-07-04T22:00:00.999936","LAUNCH_DATE":"2022-05-18","CLASSIFICATION_TYPE":"U","TLE_LINE2":"2 52695  53.2185  64.0692 0001894  28.3950 100.2846 15.50387234  7779","PERIOD":"92.880","BSTAR":"-0.03116100000000","ELEMENT_SET_NO":"999","MEAN_MOTION_DOT":"-0.01618254","FILE":"3507746","COUNTRY_CODE":"US"},{"OBJECT_TYPE":"PAYLOAD","MEAN_ELEMENT_THEORY":"SGP4","CENTER_NAME":"EARTH","MEAN_MOTION_DDOT":"0.0000000000000","EPHEMERIS_TYPE":"0","GP_ID":"207420411","EPOCH":"2022-07-04T22:00:00.999936","OBJECT_NAME":"STARLINK-4025","SEMIMAJOR_AXIS":"6737.452","MEAN_ANOMALY":"327.2382","REV_AT_EPOCH":"130","FILE":"3507746","MEAN_MOTION_DOT":"-0.01053629","COUNTRY_CODE":"US","LAUNCH_DATE":"2022-05-18","TLE_LINE2":"2 52696  53.2176  62.8604 0001915  23.8842 327.2382 15.69853889  1306","PERIOD":"91.728","CLASSIFICATION_TYPE":"U","BSTAR":"-0.00961640000000","ELEMENT_SET_NO":"999","NORAD_CAT_ID":"52696","DECAY_DATE":null,"INCLINATION":"53.2176","RCS_SIZE":"LARGE","ARG_OF_PERICENTER":"23.8842","APOAPSIS":"360.607","PERIAPSIS":"358.027","RA_OF_ASC_NODE":"62.8604","TIME_SYSTEM":"UTC","ECCENTRICITY":"0.00019150","REF_FRAME":"TEME","SITE":"AFETR","MEAN_MOTION":"15.69853889","TLE_LINE1":"1 52696U 22053AS  22185.91667824 -.01053629  00000-0 -96164-2 0  9997","OBJECT_ID":"2022-053AS"},{"OBJECT_NAME":"STARLINK-4018","SEMIMAJOR_AXIS":"6794.917","MEAN_ANOMALY":"82.4145","REV_AT_EPOCH":"130","EPOCH":"2022-07-04T22:00:00.999936","LAUNCH_DATE":"2022-05-18","PERIOD":"92.904","TLE_LINE2":"2 52697  53.2171  64.0894 0001723  48.1958  82.4145 15.49981471  1306","CLASSIFICATION_TYPE":"U","BSTAR":"-0.00656380000000","ELEMENT_SET_NO":"999","MEAN_MOTION_DOT":"-0.00357720","FILE":"3507746","COUNTRY_CODE":"US","CENTER_NAME":"EARTH","OBJECT_TYPE":"PAYLOAD","MEAN_ELEMENT_THEORY":"SGP4","EPHEMERIS_TYPE":"0","GP_ID":"207420312","MEAN_MOTION_DDOT":"0.0000000000000","ECCENTRICITY":"0.00017230","MEAN_MOTION":"15.49981471","TLE_LINE1":"1 52697U 22053AT  22185.91667824 -.00357720  00000-0 -65638-2 0  9998","OBJECT_ID":"2022-053AT","REF_FRAME":"TEME","SITE":"AFETR","DECAY_DATE":null,"NORAD_CAT_ID":"52697","PERIAPSIS":"415.611","RA_OF_ASC_NODE":"64.0894","TIME_SYSTEM":"UTC","INCLINATION":"53.2171","ARG_OF_PERICENTER":"48.1958","RCS_SIZE":"MEDIUM","APOAPSIS":"417.953"},{"ECCENTRICITY":"0.00016700","MEAN_MOTION":"15.49694761","TLE_LINE1":"1 52698U 22053AU  22185.91667824 -.01063531  00000-0 -20784-1 0  9996","OBJECT_ID":"2022-053AU","REF_FRAME":"TEME","SITE":"AFETR","DECAY_DATE":null,"NORAD_CAT_ID":"52698","PERIAPSIS":"416.485","RA_OF_ASC_NODE":"64.0569","TIME_SYSTEM":"UTC","INCLINATION":"53.2176","ARG_OF_PERICENTER":"45.1917","RCS_SIZE":"LARGE","APOAPSIS":"418.755","OBJECT_NAME":"STARLINK-4030","SEMIMAJOR_AXIS":"6795.755","MEAN_ANOMALY":"82.8272","REV_AT_EPOCH":"777","EPOCH":"2022-07-04T22:00:00.999936","LAUNCH_DATE":"2022-05-18","BSTAR":"-0.02078400000000","TLE_LINE2":"2 52698  53.2176  64.0569 0001670  45.1917  82.8272 15.49694761  7779","PERIOD":"92.922","CLASSIFICATION_TYPE":"U","ELEMENT_SET_NO":"999","MEAN_MOTION_DOT":"-0.01063531","FILE":"3507746","COUNTRY_CODE":"US","CENTER_NAME":"EARTH","OBJECT_TYPE":"PAYLOAD","MEAN_ELEMENT_THEORY":"SGP4","EPHEMERIS_TYPE":"0","GP_ID":"207419772","MEAN_MOTION_DDOT":"0.0000000000000"}];
